ONEWEB-0291             
1 49081U 21075G   24300.55845096  .00000123  00000+0  28398-3 0  9996
2 49081  87.9066 125.1191 0001396  79.4964 280.6325 13.17646736154772
ONEWEB-0293             
1 49082U 21075H   24300.81157604  .00000172  00000+0  41088-3 0  9992
2 49082  87.9072 125.0890 0001601  78.3336 281.7975 13.17649240155817
ONEWEB-0294             
1 49083U 21075J   24300.48649796  .00000064  00000+0  14144-3 0  9997
2 49083  87.8834 109.8956 0001461  65.2632 294.8648 13.12443456156048
ONEWEB-0295             
1 49084U 21075K   24300.81074870  .00000078  00000+0  16791-3 0  9995
2 49084  87.9074 125.0673 0001202  78.6894 281.4373 13.17648938155754
ONEWEB-0296             
1 49085U 21075L   24300.84820804  .00000588  00000+0  15978-2 0  9996
2 49085  87.8838 109.8273 0001013  65.3560 294.7674 13.12443863157085
ONEWEB-0297             
1 49086U 21075M   24300.49784419 -.00000192  00000+0 -56814-3 0  9997
2 49086  87.8843 109.9132 0001538  91.7475 268.3829 13.12441491156653
ONEWEB-0298             
1 49087U 21075N   24300.81494633  .00000110  00000+0  25103-3 0  9995
2 49087  87.9074 125.0845 0001425  91.7937 268.3357 13.17648946155811
ONEWEB-0299             
1 49088U 21075P   24300.81662565  .00000085  00000+0  18456-3 0  9991
2 49088  87.9070 125.0479 0001340  91.7187 268.4098 13.17651787155779
